DELTA 2 R/B(1)          
1 20453U 90008B   26049.04372630  .00062180  00000+0  79809-3 0  9999
2 20453  35.6044 303.5081 0089803  75.1977 285.8687 15.53201827923071
COSMOS 2058             
1 20465U 90010A   26049.51249991  .00004107  00000+0  24306-3 0  9997
2 20465  82.4657  66.3202 0010977  48.3007 311.9160 15.11139077939340
SL-14 R/B               
1 20466U 90010B   26049.59941777  .00000402  00000+0  45841-4 0  9999
2 20466  82.5011 285.3234 0020014   7.3264 352.8239 14.83551920925650
SL-14 R/B               
1 20511U 90018B   26049.59883661  .00000426  00000+0  50448-4 0  9990
2 20511  82.5178 240.9365 0017004 150.5611 209.6564 14.82123009919755
HST                     
1 20580U 90037B   26049.56140837  .00006994  00000+0  23228-3 0  9996
2 20580  28.4682 170.4553 0001159 251.4362 108.6108 15.29162623770387
SL-16 R/B               
1 20625U 90046B   26049.25697369  .00000282  00000+0  17000-3 0  9994
2 20625  71.0017 338.7246 0015347 326.6878  33.3277 14.15012657845640
COSMOS 2084             
1 20663U 90055A   26049.39446514  .00002719  00000+0  20128-3 0  9997
2 20663  62.7900  41.3789 0020063 185.7565 174.3308 15.05518964933413
SL-6 R/B(2)             
1 20666U 90055D   26049.15141473  .00002310  00000+0  18238-3 0  9996
2 20666  62.7844 320.2894 0021848 341.9943  18.0380 15.03495190935258
SL-8 R/B                
1 20775U 90078B   26049.62171045  .00013815  00000+0  40526-3 0  9999
2 20775  82.9003 268.4518 0365987  77.9102 286.2869 14.88406223806466
SL-8 R/B                
1 21088U 91006B   26049.44829965  .00000020  00000+0  44179-5 0  9994
2 21088  82.9448 184.3497 0023763  89.7279 331.6441 13.77492358761426
OKEAN-3                 
1 21397U 91039A   26049.32780573  .00004292  00000+0  30265-3 0  9995
2 21397  82.5206 355.5947 0015690  41.0378 319.2026 15.04652947862124
COSMOS 2151             
1 21422U 91042A   26049.60554454  .00001676  00000+0  13235-3 0  9997
2 21422  82.4949 102.0879 0013899 120.9372 239.3220 15.00029100860339
