CCSDS_OMM_VERS = 2.0
CREATION_DATE  = 
ORIGINATOR     = 

OBJECT_NAME    = DELTA 2 R/B(1)
OBJECT_ID      = 1990-008B
CENTER_NAME    = EARTH
REF_FRAME      = TEME
TIME_SYSTEM    = UTC
MEAN_ELEMENT_THEORY = SGP/SGP4

EPOCH          = 2026-02-18T01:02:57.952320
MEAN_MOTION    = 15.53201827
ECCENTRICITY   = .0089803
INCLINATION    = 35.6044
RA_OF_ASC_NODE = 303.5081
ARG_OF_PERICENTER = 75.1977
MEAN_ANOMALY   = 285.8687

EPHEMERIS_TYPE = 0
CLASSIFICATION_TYPE = U
NORAD_CAT_ID   = 20453
ELEMENT_SET_NO = 999
REV_AT_EPOCH   = 92307
BSTAR          = .79809138E-3
MEAN_MOTION_DOT = .6218E-3
MEAN_MOTION_DDOT = 0

CCSDS_OMM_VERS = 2.0
CREATION_DATE  = 
ORIGINATOR     = 

OBJECT_NAME    = COSMOS 2058
OBJECT_ID      = 1990-010A
CENTER_NAME    = EARTH
REF_FRAME      = TEME
TIME_SYSTEM    = UTC
MEAN_ELEMENT_THEORY = SGP/SGP4

EPOCH          = 2026-02-18T12:17:59.992224
MEAN_MOTION    = 15.11139077
ECCENTRICITY   = .0010977
INCLINATION    = 82.4657
RA_OF_ASC_NODE = 66.3202
ARG_OF_PERICENTER = 48.3007
MEAN_ANOMALY   = 311.9160

EPHEMERIS_TYPE = 0
CLASSIFICATION_TYPE = U
NORAD_CAT_ID   = 20465
ELEMENT_SET_NO = 999
REV_AT_EPOCH   = 93934
BSTAR          = .2430612E-3
MEAN_MOTION_DOT = .4107E-4
MEAN_MOTION_DDOT = 0

CCSDS_OMM_VERS = 2.0
CREATION_DATE  = 
ORIGINATOR     = 

OBJECT_NAME    = SL-14 R/B
OBJECT_ID      = 1990-010B
CENTER_NAME    = EARTH
REF_FRAME      = TEME
TIME_SYSTEM    = UTC
MEAN_ELEMENT_THEORY = SGP/SGP4

EPOCH          = 2026-02-18T14:23:09.695328
MEAN_MOTION    = 14.83551920
ECCENTRICITY   = .00200145
INCLINATION    = 82.5011
RA_OF_ASC_NODE = 285.3234
ARG_OF_PERICENTER = 7.3264
MEAN_ANOMALY   = 352.8239

EPHEMERIS_TYPE = 0
CLASSIFICATION_TYPE = U
NORAD_CAT_ID   = 20466
ELEMENT_SET_NO = 999
REV_AT_EPOCH   = 92565
BSTAR          = .45841395E-4
MEAN_MOTION_DOT = .402E-5
MEAN_MOTION_DDOT = 0

CCSDS_OMM_VERS = 2.0
CREATION_DATE  = 
ORIGINATOR     = 

OBJECT_NAME    = SL-14 R/B
OBJECT_ID      = 1990-018B
CENTER_NAME    = EARTH
REF_FRAME      = TEME
TIME_SYSTEM    = UTC
MEAN_ELEMENT_THEORY = SGP/SGP4

EPOCH          = 2026-02-18T14:22:19.483104
MEAN_MOTION    = 14.82123009
ECCENTRICITY   = .00170041
INCLINATION    = 82.5178
RA_OF_ASC_NODE = 240.9365
ARG_OF_PERICENTER = 150.5611
MEAN_ANOMALY   = 209.6564

EPHEMERIS_TYPE = 0
CLASSIFICATION_TYPE = U
NORAD_CAT_ID   = 20511
ELEMENT_SET_NO = 999
REV_AT_EPOCH   = 91975
BSTAR          = .50447631E-4
MEAN_MOTION_DOT = .426E-5
MEAN_MOTION_DDOT = 0

CCSDS_OMM_VERS = 2.0
CREATION_DATE  = 
ORIGINATOR     = 

OBJECT_NAME    = HST
OBJECT_ID      = 1990-037B
CENTER_NAME    = EARTH
REF_FRAME      = TEME
TIME_SYSTEM    = UTC
MEAN_ELEMENT_THEORY = SGP/SGP4

EPOCH          = 2026-02-18T13:28:25.683168
MEAN_MOTION    = 15.29162623
ECCENTRICITY   = .00011592
INCLINATION    = 28.4682
RA_OF_ASC_NODE = 170.4553
ARG_OF_PERICENTER = 251.4362
MEAN_ANOMALY   = 108.6108

EPHEMERIS_TYPE = 0
CLASSIFICATION_TYPE = U
NORAD_CAT_ID   = 20580
ELEMENT_SET_NO = 999
REV_AT_EPOCH   = 77038
BSTAR          = .23228237E-3
MEAN_MOTION_DOT = .6994E-4
MEAN_MOTION_DDOT = 0

CCSDS_OMM_VERS = 2.0
CREATION_DATE  = 
ORIGINATOR     = 

OBJECT_NAME    = SL-16 R/B
OBJECT_ID      = 1990-046B
CENTER_NAME    = EARTH
REF_FRAME      = TEME
TIME_SYSTEM    = UTC
MEAN_ELEMENT_THEORY = SGP/SGP4

EPOCH          = 2026-02-18T06:10:02.526816
MEAN_MOTION    = 14.15012657
ECCENTRICITY   = .0015347
INCLINATION    = 71.0017
RA_OF_ASC_NODE = 338.7246
ARG_OF_PERICENTER = 326.6878
MEAN_ANOMALY   = 33.3277

EPHEMERIS_TYPE = 0
CLASSIFICATION_TYPE = U
NORAD_CAT_ID   = 20625
ELEMENT_SET_NO = 999
REV_AT_EPOCH   = 84564
BSTAR          = .16999744E-3
MEAN_MOTION_DOT = .282E-5
MEAN_MOTION_DDOT = 0

CCSDS_OMM_VERS = 2.0
CREATION_DATE  = 
ORIGINATOR     = 

OBJECT_NAME    = COSMOS 2084
OBJECT_ID      = 1990-055A
CENTER_NAME    = EARTH
REF_FRAME      = TEME
TIME_SYSTEM    = UTC
MEAN_ELEMENT_THEORY = SGP/SGP4

EPOCH          = 2026-02-18T09:28:01.788096
MEAN_MOTION    = 15.05518964
ECCENTRICITY   = .00200631
INCLINATION    = 62.7900
RA_OF_ASC_NODE = 41.3789
ARG_OF_PERICENTER = 185.7565
MEAN_ANOMALY   = 174.3308

EPHEMERIS_TYPE = 0
CLASSIFICATION_TYPE = U
NORAD_CAT_ID   = 20663
ELEMENT_SET_NO = 999
REV_AT_EPOCH   = 93341
BSTAR          = .20128303E-3
MEAN_MOTION_DOT = .2719E-4
MEAN_MOTION_DDOT = 0

CCSDS_OMM_VERS = 2.0
CREATION_DATE  = 
ORIGINATOR     = 

OBJECT_NAME    = SL-6 R/B(2)
OBJECT_ID      = 1990-055D
CENTER_NAME    = EARTH
REF_FRAME      = TEME
TIME_SYSTEM    = UTC
MEAN_ELEMENT_THEORY = SGP/SGP4

EPOCH          = 2026-02-18T03:38:02.232672
MEAN_MOTION    = 15.03495190
ECCENTRICITY   = .0021848
INCLINATION    = 62.7844
RA_OF_ASC_NODE = 320.2894
ARG_OF_PERICENTER = 341.9943
MEAN_ANOMALY   = 18.0380

EPHEMERIS_TYPE = 0
CLASSIFICATION_TYPE = U
NORAD_CAT_ID   = 20666
ELEMENT_SET_NO = 999
REV_AT_EPOCH   = 93525
BSTAR          = .1823813E-3
MEAN_MOTION_DOT = .231E-4
MEAN_MOTION_DDOT = 0

CCSDS_OMM_VERS = 2.0
CREATION_DATE  = 
ORIGINATOR     = 

OBJECT_NAME    = SL-8 R/B
OBJECT_ID      = 1990-078B
CENTER_NAME    = EARTH
REF_FRAME      = TEME
TIME_SYSTEM    = UTC
MEAN_ELEMENT_THEORY = SGP/SGP4

EPOCH          = 2026-02-18T14:55:15.782880
MEAN_MOTION    = 14.88406223
ECCENTRICITY   = .03659876
INCLINATION    = 82.9003
RA_OF_ASC_NODE = 268.4518
ARG_OF_PERICENTER = 77.9102
MEAN_ANOMALY   = 286.2869

EPHEMERIS_TYPE = 0
CLASSIFICATION_TYPE = U
NORAD_CAT_ID   = 20775
ELEMENT_SET_NO = 999
REV_AT_EPOCH   = 80646
BSTAR          = .40525966E-3
MEAN_MOTION_DOT = .13815E-3
MEAN_MOTION_DDOT = 0

CCSDS_OMM_VERS = 2.0
CREATION_DATE  = 
ORIGINATOR     = 

OBJECT_NAME    = SL-8 R/B
OBJECT_ID      = 1991-006B
CENTER_NAME    = EARTH
REF_FRAME      = TEME
TIME_SYSTEM    = UTC
MEAN_ELEMENT_THEORY = SGP/SGP4

EPOCH          = 2026-02-18T10:45:33.089760
MEAN_MOTION    = 13.77492358
ECCENTRICITY   = .0023763
INCLINATION    = 82.9448
RA_OF_ASC_NODE = 184.3497
ARG_OF_PERICENTER = 89.7279
MEAN_ANOMALY   = 331.6441

EPHEMERIS_TYPE = 0
CLASSIFICATION_TYPE = U
NORAD_CAT_ID   = 21088
ELEMENT_SET_NO = 999
REV_AT_EPOCH   = 76142
BSTAR          = .4417946E-5
MEAN_MOTION_DOT = .2E-6
MEAN_MOTION_DDOT = 0

CCSDS_OMM_VERS = 2.0
CREATION_DATE  = 
ORIGINATOR     = 

OBJECT_NAME    = OKEAN-3
OBJECT_ID      = 1991-039A
CENTER_NAME    = EARTH
REF_FRAME      = TEME
TIME_SYSTEM    = UTC
MEAN_ELEMENT_THEORY = SGP/SGP4

EPOCH          = 2026-02-18T07:52:02.415072
MEAN_MOTION    = 15.04652947
ECCENTRICITY   = .00156906
INCLINATION    = 82.5206
RA_OF_ASC_NODE = 355.5947
ARG_OF_PERICENTER = 41.0378
MEAN_ANOMALY   = 319.2026

EPHEMERIS_TYPE = 0
CLASSIFICATION_TYPE = U
NORAD_CAT_ID   = 21397
ELEMENT_SET_NO = 999
REV_AT_EPOCH   = 86212
BSTAR          = .30264749E-3
MEAN_MOTION_DOT = .4292E-4
MEAN_MOTION_DDOT = 0

CCSDS_OMM_VERS = 2.0
CREATION_DATE  = 
ORIGINATOR     = 

OBJECT_NAME    = COSMOS 2151
OBJECT_ID      = 1991-042A
CENTER_NAME    = EARTH
REF_FRAME      = TEME
TIME_SYSTEM    = UTC
MEAN_ELEMENT_THEORY = SGP/SGP4

EPOCH          = 2026-02-18T14:31:59.048256
MEAN_MOTION    = 15.00029100
ECCENTRICITY   = .00138998
INCLINATION    = 82.4949
RA_OF_ASC_NODE = 102.0879
ARG_OF_PERICENTER = 120.9372
MEAN_ANOMALY   = 239.3220

EPHEMERIS_TYPE = 0
CLASSIFICATION_TYPE = U
NORAD_CAT_ID   = 21422
ELEMENT_SET_NO = 999
REV_AT_EPOCH   = 86033
BSTAR          = .13234746E-3
MEAN_MOTION_DOT = .1676E-4
MEAN_MOTION_DDOT = 0

